NORAD_CAT_ID,OBJECT_NAME,OBJECT_TYPE,EPOCH,MEAN_MOTION,ECCENTRICITY,INCLINATION,RA_OF_ASC_NODE,ARG_OF_PERICENTER,MEAN_ANOMALY,BSTAR,MEAN_MOTION_DOT,MEAN_MOTION_DDOT,TLE_LINE0,TLE_LINE1,TLE_LINE2,SEMIMAJOR_AXIS,PERIOD,APOGEE,PERIGEE,DECAYED
54803.0,STARLINK-5430,PAYLOAD,2023-09-12 01:57:29,15.08851966,0.0001339,53.2173,167.1747,87.5874,272.5272,9.8722e-05,1.284e-05,0.0,0 STARLINK-5430,1 54803U 22175AX  23255.08159546  .00001284  00000-0  98722-4 0  9999,2 54803  53.2173 167.1747 0001339  87.5874 272.5272 15.08851966 40449,6917.844,95.437,540.635,538.783,0.0
54803.0,STARLINK-5430,PAYLOAD,2023-09-12 03:32:52,15.08856092,0.0001347,53.2173,166.877,88.533,271.5817,0.00013732,1.899e-05,0.0,0 STARLINK-5430,1 54803U 22175AX  23255.14783151  .00001899  00000-0  13732-3 0  9990,2 54803  53.2173 166.8770 0001347  88.5330 271.5817 15.08856092 42618,6917.831,95.437,540.628,538.764,0.0
54803.0,STARLINK-5430,PAYLOAD,2023-09-12 17:51:22,15.08837866,0.0001519,53.2166,164.2016,78.7301,281.3862,1.0695e-05,-1.18e-06,0.0,0 STARLINK-5430,1 54803U 22175AX  23255.74400871 -.00000118  00000-0  10695-4 0  9991,2 54803  53.2166 164.2016 0001519  78.7301 281.3862 15.08837866 40542,6917.887,95.438,540.803,538.701,0.0
54803.0,STARLINK-5430,PAYLOAD,2023-09-13 03:23:40,15.08844393,0.00014,53.2168,162.4176,93.3385,266.7767,6.2132e-05,7.01e-06,0.0,0 STARLINK-5430,1 54803U 22175AX  23256.14144252  .00000701  00000-0  62132-4 0  9994,2 54803  53.2168 162.4176 0001400  93.3385 266.7767 15.08844393 40606,6917.867,95.437,540.7,538.763,0.0
54803.0,STARLINK-5430,PAYLOAD,2023-09-13 20:52:54,15.08848237,0.0001628,53.2177,159.1425,96.67,263.4478,3.2327e-05,2.27e-06,0.0,0 STARLINK-5430,1 54803U 22175AX  23256.87007796  .00000227  00000-0  32327-4 0  9991,2 54803  53.2177 159.1425 0001628  96.6700 263.4478 15.08848237 42870,6917.855,95.437,540.846,538.594,0.0
54803.0,STARLINK-5430,PAYLOAD,2023-09-14 00:03:40,15.08854696,0.0001362,53.2172,158.55,96.6382,263.4766,8.6221e-06,-1.51e-06,0.0,0 STARLINK-5430,1 54803U 22175AX  23257.00255283 -.00000151  00000-0  86221-5 0  9993,2 54803  53.2172 158.5500 0001362  96.6382 263.4766 15.08854696 40732,6917.835,95.437,540.643,538.758,0.0
54803.0,STARLINK-5430,PAYLOAD,2023-09-14 03:14:26,15.08856,0.000134,53.2171,157.9547,95.6625,264.452,2.3952e-05,9.3e-07,0.0,0 STARLINK-5430,1 54803U 22175AX  23257.13503072  .00000093  00000-0  23952-4 0  9994,2 54803  53.2171 157.9547 0001340  95.6625 264.4520 15.08856000 42912,6917.831,95.437,540.623,538.769,0.0
54803.0,STARLINK-5430,PAYLOAD,2023-09-14 20:43:42,15.08837167,0.0001532,53.2175,154.683,103.7862,256.3301,-5.3701e-05,-1.142e-05,0.0,0 STARLINK-5430,1 54803U 22175AX  23257.86368652 -.00001142  00000-0 -53701-4 0  9990,2 54803  53.2175 154.6830 0001532 103.7862 256.3301 15.08837167 43025,6917.889,95.438,540.814,538.694,0.0
54803.0,STARLINK-5430,PAYLOAD,2023-09-15 01:29:51,15.0884034,0.0001375,53.2173,153.7921,87.448,272.667,-3.4777e-05,-8.41e-06,0.0,0 STARLINK-5430,1 54803U 22175AX  23258.06240448 -.00000841  00000-0 -34777-4 0  9992,2 54803  53.2173 153.7921 0001375  87.4480 272.6670 15.08840340 40892,6917.879,95.438,540.696,538.793,0.0
54803.0,STARLINK-5430,PAYLOAD,2023-09-15 03:05:14,15.08842201,0.0001415,53.2174,153.4946,89.5471,270.5683,-2.2634e-06,-3.24e-06,0.0,0 STARLINK-5430,1 54803U 22175AX  23258.12864300 -.00000324  00000-0 -22634-5 0  9994,2 54803  53.2174 153.4946 0001415  89.5471 270.5683 15.08842201 43066,6917.874,95.437,540.718,538.76,0.0
54803.0,STARLINK-5430,PAYLOAD,2023-09-15 23:45:15,15.08846462,0.0001287,53.2172,149.6302,91.3981,268.7159,4.8608e-05,4.86e-06,0.0,0 STARLINK-5430,1 54803U 22175AX  23258.98975855  .00000486  00000-0  48608-4 0  9991,2 54803  53.2172 149.6302 0001287  91.3981 268.7159 15.08846462 41036,6917.861,95.437,540.616,538.835,0.0
54803.0,STARLINK-5430,PAYLOAD,2023-09-16 02:56:01,15.0884289,0.0001296,53.2176,149.0347,85.8575,274.2565,0.00019788,2.863e-05,0.0,0 STARLINK-5430,1 54803U 22175AX  23259.12223684  .00002863  00000-0  19788-3 0  9991,2 54803  53.2176 149.0347 0001296  85.8575 274.2565 15.08842890 43216,6917.872,95.437,540.633,538.84,0.0
54803.0,STARLINK-5430,PAYLOAD,2023-09-16 17:14:30,15.088322,0.0001587,53.2174,146.3575,85.3973,274.7201,5.0379e-05,5.14e-06,0.0,0 STARLINK-5430,1 54803U 22175AX  23259.71841051  .00000514  00000-0  50379-4 0  9993,2 54803  53.2174 146.3575 0001587  85.3973 274.7201 15.08832200 41143,6917.904,95.438,540.867,538.671,0.0
54803.0,STARLINK-5430,PAYLOAD,2023-09-17 02:46:49,15.08834251,0.0001303,53.2165,144.5748,80.1885,279.9254,6.2632e-05,7.09e-06,0.0,0 STARLINK-5430,1 54803U 22175AX  23260.11585114  .00000709  00000-0  62632-4 0  9995,2 54803  53.2165 144.5748 0001303  80.1885 279.9254 15.08834251 43365,6917.898,95.438,540.664,538.862,0.0
54803.0,STARLINK-5430,PAYLOAD,2023-09-17 23:26:49,15.08853964,0.0001293,53.2169,140.7097,85.355,274.759,9.8169e-05,1.275e-05,0.0,0 STARLINK-5430,1 54803U 22175AX  23260.97695986  .00001275  00000-0  98169-4 0  9991,2 54803  53.2169 140.7097 0001293  85.3550 274.7590 15.08853964 41331,6917.838,95.437,540.597,538.808,0.0
54803.0,STARLINK-5430,PAYLOAD,2023-09-18 02:37:35,15.08858251,0.0001291,53.2169,140.1146,86.4114,273.7026,0.00013339,1.837e-05,0.0,0 STARLINK-5430,1 54803U 22175AX  23261.10943565  .00001837  00000-0  13339-3 0  9995,2 54803  53.2169 140.1146 0001291  86.4114 273.7026 15.08858251 43515,6917.825,95.436,540.583,538.797,0.0
54803.0,STARLINK-5430,PAYLOAD,2023-09-18 20:06:51,15.08836024,0.0001239,53.2167,136.8439,94.1196,265.9938,0.00011518,1.546e-05,0.0,0 STARLINK-5430,1 54803U 22175AX  23261.83809284  .00001546  00000-0  11518-3 0  9998,2 54803  53.2167 136.8439 0001239  94.1196 265.9938 15.08836024 43629,6917.893,95.438,540.615,538.9,0.0
54803.0,STARLINK-5430,PAYLOAD,2023-09-18 23:17:37,15.08844261,0.0001471,53.2165,136.25,83.7662,276.3498,0.00019106,2.754e-05,0.0,0 STARLINK-5430,1 54803U 22175AX  23261.97056758  .00002754  00000-0  19106-3 0  9996,2 54803  53.2165 136.2500 0001471  83.7662 276.3498 15.08844261 41481,6917.867,95.437,540.75,538.715,0.0
54803.0,STARLINK-5430,PAYLOAD,2023-09-20 08:40:42,15.0883828,0.0001499,53.2157,130.0045,87.253,272.8634,1.5656e-05,-3.9e-07,0.0,0 STARLINK-5430,1 54803U 22175AX  23263.36160656 -.00000039  00000-0  15656-4 0  9996,2 54803  53.2157 130.0045 0001499  87.2530 272.8634 15.08838280 41691,6917.886,95.438,540.788,538.714,0.0
54803.0,STARLINK-5430,PAYLOAD,2023-09-20 21:23:48,15.08822817,0.0001552,53.2161,127.6242,85.4535,274.6635,-0.00024839,-4.237e-05,0.0,0 STARLINK-5430,1 54803U 22175AX  23263.89153644 -.00004237  00000-0 -24839-3 0  9990,2 54803  53.2161 127.6242 0001552  85.4535 274.6635 15.08822817 43931,6917.933,95.439,540.872,538.724,0.0
54803.0,STARLINK-5430,PAYLOAD,2023-09-20 22:59:11,15.08825463,0.0001534,53.2159,127.3277,84.7196,275.3971,-0.00017335,-3.045e-05,0.0,0 STARLINK-5430,1 54803U 22175AX  23263.95777626 -.00003045  00000-0 -17335-3 0  9998,2 54803  53.2159 127.3277 0001534  84.7196 275.3971 15.08825463 41780,6917.925,95.438,540.851,538.729,0.0
54803.0,STARLINK-5430,PAYLOAD,2023-09-21 21:14:35,15.08839371,0.000124,53.2152,123.1633,81.3593,278.7539,0.00017694,2.529e-05,0.0,0 STARLINK-5430,1 54803U 22175AX  23264.88513609  .00002529  00000-0  17694-3 0  9992,2 54803  53.2152 123.1633 0001240  81.3593 278.7539 15.08839371 44087,6917.882,95.438,540.605,538.889,0.0
54803.0,STARLINK-5430,PAYLOAD,2023-09-22 00:25:21,15.08852822,0.0001493,53.2164,122.5688,89.4038,270.7125,0.00021993,3.215e-05,0.0,0 STARLINK-5430,1 54803U 22175AX  23265.01760973  .00003215  00000-0  21993-3 0  9996,2 54803  53.2164 122.5688 0001493  89.4038 270.7125 15.08852822 41947,6917.841,95.437,540.739,538.673,0.0
54803.0,STARLINK-5430,PAYLOAD,2023-09-22 17:54:36,15.08840909,0.0001308,53.2155,119.2979,77.4174,282.6964,0.00038153,5.789e-05,0.0,0 STARLINK-5430,1 54803U 22175AX  23265.74625788  .00005789  00000-0  38153-3 0  9994,2 54803  53.2155 119.2979 0001308  77.4174 282.6964 15.08840909 42055,6917.878,95.437,540.647,538.838,0.0
54803.0,STARLINK-5430,PAYLOAD,2023-09-22 21:05:22,15.08846662,0.0001428,53.2157,118.7009,82.6946,277.4208,0.00031924,4.797e-05,0.0,0 STARLINK-5430,1 54803U 22175AX  23265.87873447  .00004797  00000-0  31924-3 0  9992,2 54803  53.2157 118.7009 0001428  82.6946 277.4208 15.08846662 44230,6917.86,95.437,540.713,538.737,0.0
54803.0,STARLINK-5430,PAYLOAD,2023-09-22 22:40:45,15.08850781,0.0001411,53.2163,118.404,84.4514,275.6639,0.00036775,5.571e-05,0.0,0 STARLINK-5430,1 54803U 22175AX  23265.94497244  .00005571  00000-0  36775-3 0  9997,2 54803  53.2163 118.4040 0001411  84.4514 275.6639 15.08850781 42088,6917.847,95.437,540.689,538.736,0.0
54803.0,STARLINK-5430,PAYLOAD,2023-09-23 19:20:46,15.08840775,0.0001318,53.2153,114.5393,65.3848,294.7281,-4.5503e-05,-1.012e-05,0.0,0 STARLINK-5430,1 54803U 22175AX  23266.80609584 -.00001012  00000-0 -45503-4 0  9993,2 54803  53.2153 114.5393 0001318  65.3848 294.7281 15.08840775 42211,6917.878,95.438,540.655,538.831,0.0
54803.0,STARLINK-5430,PAYLOAD,2023-09-24 00:06:55,15.0884488,0.0001275,53.2154,113.6484,83.5622,276.5515,1.2482e-05,-8.9e-07,0.0,0 STARLINK-5430,1 54803U 22175AX  23267.00481269 -.00000089  00000-0  12482-4 0  9996,2 54803  53.2154 113.6484 0001275  83.5622 276.5515 15.08844880 44409,6917.865,95.437,540.613,538.848,0.0
54803.0,STARLINK-5430,PAYLOAD,2023-09-24 19:11:33,15.0883901,0.0001237,53.2156,110.08,86.3798,273.7335,-1.4685e-05,-5.22e-06,0.0,0 STARLINK-5430,1 54803U 22175AX  23267.79969581 -.00000522  00000-0 -14685-4 0  9990,2 54803  53.2156 110.0800 0001237  86.3798 273.7335 15.08839010 44528,6917.883,95.438,540.604,538.893,0.0
54803.0,STARLINK-5430,PAYLOAD,2023-09-24 23:57:42,15.08842875,0.0001233,53.2156,109.1876,85.0539,275.0594,4.7989e-05,4.76e-06,0.0,0 STARLINK-5430,1 54803U 22175AX  23267.99841388  .00000476  00000-0  47989-4 0  9995,2 54803  53.2156 109.1876 0001233  85.0539 275.0594 15.08842875 42393,6917.872,95.437,540.59,538.884,0.0
